[{"OBJECT_NAME":"SHIYAN-6 01 (SY-6 01)","OBJECT_ID":"2018-094B","EPOCH":"2026-03-09T23:04:36.967872","MEAN_MOTION":15.28649156,"ECCENTRICITY":0.00144834,"INCLINATION":97.3669,"RA_OF_ASC_NODE":84.0964,"ARG_OF_PERICENTER":135.6758,"MEAN_ANOMALY":224.5644,"EPHEMERIS_TYPE":0,"CLASSIFICATION_TYPE":"U","NORAD_CAT_ID":43711,"ELEMENT_SET_NO":999,"REV_AT_EPOCH":40632,"BSTAR":0.00024768444,"MEAN_MOTION_DOT":6.847e-5,"MEAN_MOTION_DDOT":0},{"OBJECT_NAME":"STARLINK-31836","OBJECT_ID":"2024-088S","EPOCH":"2026-03-09T12:20:50.332416","MEAN_MOTION":15.30181197,"ECCENTRICITY":0.00012888,"INCLINATION":53.1605,"RA_OF_ASC_NODE":140.8406,"ARG_OF_PERICENTER":114.5966,"MEAN_ANOMALY":245.517,"EPHEMERIS_TYPE":0,"CLASSIFICATION_TYPE":"U","NORAD_CAT_ID":59724,"ELEMENT_SET_NO":999,"REV_AT_EPOCH":10365,"BSTAR":7.305874e-6,"MEAN_MOTION_DOT":-1.43e-6,"MEAN_MOTION_DDOT":0}]
